NORAD_CAT_ID,OBJECT_NAME,OBJECT_TYPE,EPOCH,MEAN_MOTION,ECCENTRICITY,INCLINATION,RA_OF_ASC_NODE,ARG_OF_PERICENTER,MEAN_ANOMALY,BSTAR,MEAN_MOTION_DOT,MEAN_MOTION_DDOT,TLE_LINE0,TLE_LINE1,TLE_LINE2,SEMIMAJOR_AXIS,PERIOD,APOGEE,PERIGEE,DECAYED
49131.0,STARLINK-3096,PAYLOAD,2022-04-10 06:00:02,15.49945573,0.000361,69.9999,263.1477,255.6674,87.948,-0.010569,-0.00553748,0.0,0 STARLINK-3096,1 49131U 21082B   22100.25002315 -.00553748  00000-0 -10569-1 0  9990,2 49131  69.9999 263.1477 0003610 255.6674  87.9480 15.49945573 32739,6795.022,92.906,419.34,414.434,0.0
49131.0,STARLINK-3096,PAYLOAD,2022-04-10 14:00:01,15.49558037,0.00035,70.0003,262.2383,268.5489,134.1447,-0.010845,-0.0056001,0.0,0 STARLINK-3096,1 49131U 21082B   22100.58334491 -.00560010  00000-0 -10845-1 0  9996,2 49131  70.0003 262.2383 0003500 268.5489 134.1447 15.49558037  3673,6796.155,92.93,420.399,415.641,0.0
49131.0,STARLINK-3096,PAYLOAD,2022-04-10 22:00:00,15.49161435,0.0003577,70.0,261.3291,259.6574,201.7127,-0.010797,-0.00550461,0.0,0 STARLINK-3096,1 49131U 21082B   22100.91667824 -.00550461  00000-0 -10797-1 0  9997,2 49131  70.0000 261.3291 0003577 259.6574 201.7127 15.49161435  3687,6797.315,92.954,421.611,416.74800000000016,0.0
49131.0,STARLINK-3096,PAYLOAD,2022-04-11 14:00:01,15.48381525,0.0003313,70.0001,259.5127,266.2212,311.0896,-0.011208,-0.0055556999999999,0.0,0 STARLINK-3096,1 49131U 21082B   22101.58334491 -.00555570  00000-0 -11208-1 0  9996,2 49131  70.0001 259.5127 0003313 266.2212 311.0896 15.48381525 32937,6799.597,93.0,423.715,419.21,0.0
49131.0,STARLINK-3096,PAYLOAD,2022-04-11 22:00:00,15.47988252,0.0003507,69.9998,258.6051,256.0132,18.5647,-0.011282,-0.00551886,0.0,0 STARLINK-3096,1 49131U 21082B   22101.91667824 -.00551886  00000-0 -11282-1 0  9990,2 49131  69.9998 258.6051 0003507 256.0132  18.5647 15.47988252  3668,6800.749,93.024,424.999,420.229,0.0
49131.0,STARLINK-3096,PAYLOAD,2022-04-12 14:00:01,15.47209505,0.0003478,70.0003,256.7923,267.8165,119.8856,-0.011767,-0.00559651,0.0,0 STARLINK-3096,1 49131U 21082B   22102.58334491 -.00559651  00000-0 -11767-1 0  9991,2 49131  70.0003 256.7923 0003478 267.8165 119.8856 15.47209505  3662,6803.031,93.071,427.262,422.53,0.0
49131.0,STARLINK-3096,PAYLOAD,2022-04-12 22:00:00,15.46814387,0.0003538,69.9997,255.8863,261.8853,181.6764,-0.011757,-0.00552102,0.0,0 STARLINK-3096,1 49131U 21082B   22102.91667824 -.00552102  00000-0 -11757-1 0  9990,2 49131  69.9997 255.8863 0003538 261.8853 181.6764 15.46814387 33149,6804.189,93.095,428.461,423.647,0.0
49131.0,STARLINK-3096,PAYLOAD,2022-04-13 14:00:03,15.46032636,0.0003276,70.0002,254.0763,269.5589,284.4407,-0.012143,-0.00554804,0.0,0 STARLINK-3096,1 49131U 21082B   22103.58336806 -.00554804  00000-0 -12143-1 0  9998,2 49131  70.0002 254.0763 0003276 269.5589 284.4407 15.46032636  3691,6806.483,93.142,430.577,426.11800000000005,0.0
49131.0,STARLINK-3096,PAYLOAD,2022-04-13 22:00:00,15.45640285,0.0003426,69.9998,253.172,258.2968,350.0247,-0.01226,-0.00552805,0.0,0 STARLINK-3096,1 49131U 21082B   22103.91667824 -.00552805  00000-0 -12260-1 0  9991,2 49131  69.9998 253.1720 0003426 258.2968 350.0247 15.45640285  3672,6807.634,93.165,431.832,427.167,0.0
49131.0,STARLINK-3096,PAYLOAD,2022-04-14 08:00:01,15.4513351,0.0003368,69.9997,252.0425,267.9647,137.7676,-0.011861,-0.00527304,0.0,0 STARLINK-3096,1 49131U 21082B   22104.33334491 -.00527304  00000-0 -11861-1 0  9991,2 49131  69.9997 252.0425 0003368 267.9647 137.7676 15.45133510 33360,6809.123000000001,93.196,433.281,428.694,0.0
49131.0,STARLINK-3096,PAYLOAD,2022-04-14 14:00:01,15.44859881,0.0003437,70.0002,251.3654,268.14,87.6737,-0.012699,-0.00557184,0.0,0 STARLINK-3096,1 49131U 21082B   22104.58334491 -.00557184  00000-0 -12699-1 0  9997,2 49131  70.0002 251.3654 0003437 268.1400  87.6737 15.44859881  3669,6809.927,93.212,434.132,429.451,0.0
49131.0,STARLINK-3096,PAYLOAD,2022-04-14 22:00:00,15.44467481,0.0003582,69.9997,250.4627,259.1123,149.7437,-0.012794,-0.00554127,0.0,0 STARLINK-3096,1 49131U 21082B   22104.91667824 -.00554127  00000-0 -12794-1 0  9993,2 49131  69.9997 250.4627 0003582 259.1123 149.7437 15.44467481 33450,6811.08,93.236,435.385,430.505,0.0
49131.0,STARLINK-3096,PAYLOAD,2022-04-15 11:47:25,15.44765293,0.0004963999999999,69.9955,248.9083,284.0263,76.0368,-0.003479,-0.00160173,0.0,0 STARLINK-3096,1 49131U 21082B   22105.49126263 -.00160173  00000-0 -34790-2 0  9999,2 49131  69.9955 248.9083 0004964 284.0263  76.0368 15.44765293 33546,6810.205,93.218,435.45,428.689,0.0
49131.0,STARLINK-3096,PAYLOAD,2022-04-15 13:20:43,15.44703526,0.0003348999999999,69.9958,248.7331,256.1227,103.9583,-0.0036179,-0.00166034,0.0,0 STARLINK-3096,1 49131U 21082B   22105.55606170 -.00166034  00000-0 -36179-2 0  9991,2 49131  69.9958 248.7331 0003349 256.1227 103.9583 15.44703526 33550,6810.386,93.222,434.532,429.971,0.0
49131.0,STARLINK-3096,PAYLOAD,2022-04-15 22:00:00,15.43292984,0.0003364,69.9995,247.7581,260.0089,305.1585,-0.013331,-0.00554748,0.0,0 STARLINK-3096,1 49131U 21082B   22105.91667824 -.00554748  00000-0 -13331-1 0  9991,2 49131  69.9995 247.7581 0003364 260.0089 305.1585 15.43292984 33608,6814.535,93.307,438.693,434.108,0.0
49131.0,STARLINK-3096,PAYLOAD,2022-04-16 14:00:01,15.42509855,0.0003332,70.0002,245.9578,268.8301,38.198,-0.013672,-0.00554155,0.0,0 STARLINK-3096,1 49131U 21082B   22106.58334491 -.00554155  00000-0 -13672-1 0  9996,2 49131  70.0002 245.9578 0003332 268.8301  38.1980 15.42509855  3677,6816.842,93.354,440.978,436.435,0.0
49131.0,STARLINK-3096,PAYLOAD,2022-04-16 22:00:01,15.42119129,0.000351,69.9998,245.0584,260.5633,96.7546,-0.013858,-0.00554386,0.0,0 STARLINK-3096,1 49131U 21082B   22106.91668981 -.00554386  00000-0 -13858-1 0  9999,2 49131  69.9998 245.0584 0003510 260.5633  96.7546 15.42119129 33752,6817.993,93.378,442.251,437.465,0.0
49131.0,STARLINK-3096,PAYLOAD,2022-04-17 14:00:01,15.41336178,0.0003405,70.0001,243.2614,272.663,183.6355,-0.014262,-0.00555696,0.0,0 STARLINK-3096,1 49131U 21082B   22107.58334491 -.00555696  00000-0 -14262-1 0  9994,2 49131  70.0001 243.2614 0003405 272.6630 183.6355 15.41336178  3674,6820.302,93.425,444.489,439.844,0.0
49131.0,STARLINK-3096,PAYLOAD,2022-04-17 22:00:00,15.40945329,0.0003388,69.9997,242.3634,262.2824,242.8337,-0.014443,-0.00555484,0.0,0 STARLINK-3096,1 49131U 21082B   22107.91667824 -.00555484  00000-0 -14443-1 0  9996,2 49131  69.9997 242.3634 0003388 262.2824 242.8337 15.40945329  3656,6821.455,93.449,445.631,441.009,0.0
49131.0,STARLINK-3096,PAYLOAD,2022-04-18 08:00:01,15.40454878,0.0003366,70.0001,241.2419,260.6536,34.8253,-0.014624,-0.00553499,0.0,0 STARLINK-3096,1 49131U 21082B   22108.33334491 -.00553499  00000-0 -14624-1 0  9999,2 49131  70.0001 241.2419 0003366 260.6536  34.8253 15.40454878 33970,6822.903,93.479,447.064,442.471,0.0
49131.0,STARLINK-3096,PAYLOAD,2022-04-18 14:00:01,15.4015973,0.0003262,70.0,240.5694,268.4277,332.9176,-0.014706,-0.00551329,0.0,0 STARLINK-3096,1 49131U 21082B   22108.58334491 -.00551329  00000-0 -14706-1 0  9997,2 49131  70.0000 240.5694 0003262 268.4277 332.9176 15.40159730  3678,6823.774,93.497,447.865,443.414,0.0
49131.0,STARLINK-3096,PAYLOAD,2022-04-18 22:00:00,15.3967001,0.000343,69.9993,239.6725,262.4866,26.323,-0.011227,-0.00421191,0.0,0 STARLINK-3096,1 49131U 21082B   22108.91667824 -.00421191  00000-0 -11227-1 0  9991,2 49131  69.9993 239.6725 0003430 262.4866  26.3230 15.39670010  3633,6825.221,93.527,449.427,444.745,0.0
49131.0,STARLINK-3096,PAYLOAD,2022-04-19 14:00:01,15.38987688,0.0003424,70.0001,237.8824,270.2256,111.9408,-0.015393,-0.00554983,0.0,0 STARLINK-3096,1 49131U 21082B   22109.58334491 -.00554983  00000-0 -15393-1 0  9990,2 49131  70.0001 237.8824 0003424 270.2256 111.9408 15.38987688 34171,6827.239000000001,93.568,451.441,446.766,0.0
49131.0,STARLINK-3096,PAYLOAD,2022-04-20 14:00:01,15.37811855,0.000329,70.0,235.2002,273.5639,245.2006,-0.015925,-0.00552657,0.0,0 STARLINK-3096,1 49131U 21082B   22110.58334491 -.00552657  00000-0 -15925-1 0  9999,2 49131  70.0000 235.2002 0003290 273.5639 245.2006 15.37811855  3668,6830.718000000003,93.64,454.831,450.336,0.0
49131.0,STARLINK-3096,PAYLOAD,2022-04-20 22:00:00,15.37423202,0.0003252,69.9997,234.3071,265.0982,298.2588,-0.016248,-0.005565,0.0,0 STARLINK-3096,1 49131U 21082B   22110.91667824 -.00556500  00000-0 -16248-1 0  9995,2 49131  69.9997 234.3071 0003252 265.0982 298.2588 15.37423202 34371,6831.869000000002,93.663,455.956,451.513,0.0
49131.0,STARLINK-3096,PAYLOAD,2022-04-21 14:00:01,15.36637406,0.0003287,70.0001,232.5227,271.3267,19.8107,-0.016501,-0.00551333,0.0,0 STARLINK-3096,1 49131U 21082B   22111.58334491 -.00551333  00000-0 -16501-1 0  9991,2 49131  70.0001 232.5227 0003287 271.3267  19.8107 15.36637406  3661,6834.198,93.711,458.31,453.817,0.0
49131.0,STARLINK-3096,PAYLOAD,2022-04-21 22:00:00,15.36249082,0.0003443,69.9998,231.6312,259.9577,74.3642,-0.016877,-0.00556517,0.0,0 STARLINK-3096,1 49131U 21082B   22111.91667824 -.00556517  00000-0 -16877-1 0  9992,2 49131  69.9998 231.6312 0003443 259.9577  74.3642 15.36249082  3656,6835.35,93.735,459.568,454.861,0.0
49131.0,STARLINK-3096,PAYLOAD,2022-04-22 06:00:00,15.35854058,0.0003515,69.9999,230.7404,258.0201,119.0194,-0.016898,-0.00550604,0.0,0 STARLINK-3096,1 49131U 21082B   22112.25001157 -.00550604  00000-0 -16898-1 0  9995,2 49131  69.9999 230.7404 0003515 258.0201 119.0194 15.35854058 34582,6836.522,93.759,460.79,455.984,0.0
49131.0,STARLINK-3096,PAYLOAD,2022-04-22 14:00:01,15.35465272,0.0003407,70.0001,229.8501,270.8753,148.4103,-0.017261,-0.0055511,0.0,0 STARLINK-3096,1 49131U 21082B   22112.58334491 -.00555110  00000-0 -17261-1 0  9993,2 49131  70.0001 229.8501 0003407 270.8753 148.4103 15.35465272  3678,6837.676,93.783,461.87,457.211,0.0
